{
  "type": "FeatureCollection",
  "features": [
    {
      "type": "Feature",
      "properties": {
        "norad_id": 31921,
        "name": "FENGYUN 1C DEB",
        "group": "fengyun-1c-debris",
        "lat": -69.82439099086592,
        "lon": 33.60235547240049,
        "alt_km": 841.374372692947,
        "timestamp": "2025-12-13T20:38:51.290048+00:00",
        "meta_object_name": "FENGYUN 1C DEB",
        "meta_object_id": "1999-025CLY",
        "meta_epoch": "2025-12-08T10:12:20.735136",
        "meta_mean_motion": 13.75255965,
        "meta_eccentricity": 0.02021401,
        "meta_inclination": 99.3376,
        "meta_ra_of_asc_node": 234.8801,
        "meta_arg_of_pericenter": 276.3573,
        "meta_mean_anomaly": 81.4593,
        "meta_ephemeris_type": 0,
        "meta_classification_type": "U",
        "meta_norad_cat_id": 31921,
        "meta_element_set_no": 999,
        "meta_rev_at_epoch": 92247,
        "meta_bstar": 0.0017833511,
        "meta_mean_motion_dot": 1.939e-05,
        "meta_mean_motion_ddot": 0,
        "tle_line1": "1 31921U 99025CLY 25342.42523999  .00001939  00000+0  17834-2 0  9996",
        "tle_line2": "2 31921  99.3376 234.8801 0202140 276.3573  81.4593 13.75255965922475"
      },
      "geometry": {
        "type": "Point",
        "coordinates": [
          33.60235547240049,
          -69.82439099086592
        ]
      }
    },
    {
      "type": "Feature",
      "properties": {
        "norad_id": 31922,
        "name": "FENGYUN 1C DEB",
        "group": "fengyun-1c-debris",
        "lat": 7.083258396395703,
        "lon": 160.32451336157314,
        "alt_km": 1043.613660985402,
        "timestamp": "2025-12-13T20:38:51.290058+00:00",
        "meta_object_name": "FENGYUN 1C DEB",
        "meta_object_id": "1999-025CLZ",
        "meta_epoch": "2025-12-12T23:18:28.585152",
        "meta_mean_motion": 13.86606289,
        "meta_eccentricity": 0.01615117,
        "meta_inclination": 98.805,
        "meta_ra_of_asc_node": 338.3838,
        "meta_arg_of_pericenter": 25.8017,
        "meta_mean_anomaly": 29.9204,
        "meta_ephemeris_type": 0,
        "meta_classification_type": "U",
        "meta_norad_cat_id": 31922,
        "meta_element_set_no": 999,
        "meta_rev_at_epoch": 93020,
        "meta_bstar": 0.0023546916,
        "meta_mean_motion_dot": 2.994e-05,
        "meta_mean_motion_ddot": 0,
        "tle_line1": "1 31922U 99025CLZ 25346.97116418  .00002994  00000+0  23547-2 0  9995",
        "tle_line2": "2 31922  98.8050 338.3838 0161511  25.8017  29.9204 13.86606289930202"
      },
      "geometry": {
        "type": "Point",
        "coordinates": [
          160.32451336157314,
          7.083258396395703
        ]
      }
    },
    {
      "type": "Feature",
      "properties": {
        "norad_id": 31923,
        "name": "FENGYUN 1C DEB",
        "group": "fengyun-1c-debris",
        "lat": -48.02337743250646,
        "lon": -108.05469319611873,
        "alt_km": 987.7007862847222,
        "timestamp": "2025-12-13T20:38:51.290068+00:00",
        "meta_object_name": "FENGYUN 1C DEB",
        "meta_object_id": "1999-025CMA",
        "meta_epoch": "2025-12-10T04:39:01.801440",
        "meta_mean_motion": 13.5487962,
        "meta_eccentricity": 0.02988887,
        "meta_inclination": 98.4426,
        "meta_ra_of_asc_node": 78.306,
        "meta_arg_of_pericenter": 310.5348,
        "meta_mean_anomaly": 47.0108,
        "meta_ephemeris_type": 0,
        "meta_classification_type": "U",
        "meta_norad_cat_id": 31923,
        "meta_element_set_no": 999,
        "meta_rev_at_epoch": 63600,
        "meta_bstar": 0.0017886156,
        "meta_mean_motion_dot": 1.598e-05,
        "meta_mean_motion_ddot": 0,
        "tle_line1": "1 31923U 99025CMA 25344.19377085  .00001598  00000+0  17886-2 0  9995",
        "tle_line2": "2 31923  98.4426  78.3060 0298888 310.5348  47.0108 13.54879620636004"
      },
      "geometry": {
        "type": "Point",
        "coordinates": [
          -108.05469319611873,
          -48.02337743250646
        ]
      }
    },
    {
      "type": "Feature",
      "properties": {
        "norad_id": 31924,
        "name": "FENGYUN 1C DEB",
        "group": "fengyun-1c-debris",
        "lat": 0.7209656130395434,
        "lon": -34.83917707944521,
        "alt_km": 1002.0308807563215,
        "timestamp": "2025-12-13T20:38:51.290078+00:00",
        "meta_object_name": "FENGYUN 1C DEB",
        "meta_object_id": "1999-025CMB",
        "meta_epoch": "2025-12-11T09:42:09.001440",
        "meta_mean_motion": 13.6390293,
        "meta_eccentricity": 0.02728704,
        "meta_inclination": 98.3997,
        "meta_ra_of_asc_node": 142.9288,
        "meta_arg_of_pericenter": 100.423,
        "meta_mean_anomaly": 262.7788,
        "meta_ephemeris_type": 0,
        "meta_classification_type": "U",
        "meta_norad_cat_id": 31924,
        "meta_element_set_no": 999,
        "meta_rev_at_epoch": 91449,
        "meta_bstar": 0.0020856968,
        "meta_mean_motion_dot": 2.1e-05,
        "meta_mean_motion_ddot": 0,
        "tle_line1": "1 31924U 99025CMB 25345.40427085  .00002100  00000+0  20857-2 0  9999",
        "tle_line2": "2 31924  98.3997 142.9288 0272870 100.4230 262.7788 13.63902930914499"
      },
      "geometry": {
        "type": "Point",
        "coordinates": [
          -34.83917707944521,
          0.7209656130395434
        ]
      }
    },
    {
      "type": "Feature",
      "properties": {
        "norad_id": 31926,
        "name": "FENGYUN 1C DEB",
        "group": "fengyun-1c-debris",
        "lat": 24.33229475346874,
        "lon": -92.78205656383092,
        "alt_km": 790.7192194734371,
        "timestamp": "2025-12-13T20:38:51.290088+00:00",
        "meta_object_name": "FENGYUN 1C DEB",
        "meta_object_id": "1999-025CMD",
        "meta_epoch": "2025-12-12T05:19:00.782976",
        "meta_mean_motion": 14.30719252,
        "meta_eccentricity": 0.00390708,
        "meta_inclination": 98.9566,
        "meta_ra_of_asc_node": 81.441,
        "meta_arg_of_pericenter": 254.6996,
        "meta_mean_anomaly": 104.9866,
        "meta_ephemeris_type": 0,
        "meta_classification_type": "U",
        "meta_norad_cat_id": 31926,
        "meta_element_set_no": 999,
        "meta_rev_at_epoch": 95220,
        "meta_bstar": 0.0037395544,
        "meta_mean_motion_dot": 9.832e-05,
        "meta_mean_motion_ddot": 0,
        "tle_line1": "1 31926U 99025CMD 25346.22153684  .00009832  00000+0  37396-2 0  9998",
        "tle_line2": "2 31926  98.9566  81.4410 0039070 254.6996 104.9866 14.30719252952200"
      },
      "geometry": {
        "type": "Point",
        "coordinates": [
          -92.78205656383092,
          24.33229475346874
        ]
      }
    },
    {
      "type": "Feature",
      "properties": {
        "norad_id": 31929,
        "name": "FENGYUN 1C DEB",
        "group": "fengyun-1c-debris",
        "lat": -81.07139813691542,
        "lon": -142.81150165194586,
        "alt_km": 825.1795641545814,
        "timestamp": "2025-12-13T20:38:51.290098+00:00",
        "meta_object_name": "FENGYUN 1C DEB",
        "meta_object_id": "1999-025CME",
        "meta_epoch": "2025-12-12T14:57:05.736384",
        "meta_mean_motion": 14.34936907,
        "meta_eccentricity": 0.0074244,
        "meta_inclination": 98.7906,
        "meta_ra_of_asc_node": 115.9705,
        "meta_arg_of_pericenter": 55.663,
        "meta_mean_anomaly": 305.155,
        "meta_ephemeris_type": 0,
        "meta_classification_type": "U",
        "meta_norad_cat_id": 31929,
        "meta_element_set_no": 999,
        "meta_rev_at_epoch": 70644,
        "meta_bstar": 0.00072423089,
        "meta_mean_motion_dot": 2.08e-05,
        "meta_mean_motion_ddot": 0,
        "tle_line1": "1 31929U 99025CME 25346.62298306  .00002080  00000+0  72423-3 0  9995",
        "tle_line2": "2 31929  98.7906 115.9705 0074244  55.6630 305.1550 14.34936907706445"
      },
      "geometry": {
        "type": "Point",
        "coordinates": [
          -142.81150165194586,
          -81.07139813691542
        ]
      }
    },
    {
      "type": "Feature",
      "properties": {
        "norad_id": 31931,
        "name": "FENGYUN 1C DEB",
        "group": "fengyun-1c-debris",
        "lat": 4.318104639756944,
        "lon": -62.519065887202025,
        "alt_km": 1131.2064132751802,
        "timestamp": "2025-12-13T20:38:51.290108+00:00",
        "meta_object_name": "FENGYUN 1C DEB",
        "meta_object_id": "1999-025CMG",
        "meta_epoch": "2025-12-11T14:58:14.235168",
        "meta_mean_motion": 13.42619022,
        "meta_eccentricity": 0.04232838,
        "meta_inclination": 97.8134,
        "meta_ra_of_asc_node": 296.3349,
        "meta_arg_of_pericenter": 272.5371,
        "meta_mean_anomaly": 82.7388,
        "meta_ephemeris_type": 0,
        "meta_classification_type": "U",
        "meta_norad_cat_id": 31931,
        "meta_element_set_no": 999,
        "meta_rev_at_epoch": 65207,
        "meta_bstar": 0.0016768042,
        "meta_mean_motion_dot": 1.586e-05,
        "meta_mean_motion_ddot": 0,
        "tle_line1": "1 31931U 99025CMG 25345.62377587  .00001586  00000+0  16768-2 0  9995",
        "tle_line2": "2 31931  97.8134 296.3349 0423283 272.5371  82.7388 13.42619022652072"
      },
      "geometry": {
        "type": "Point",
        "coordinates": [
          -62.519065887202025,
          4.318104639756944
        ]
      }
    }
  ]
}